,address,lat,lon,name
0,"Postbus 440  Aalsmeer,  Noord-Holland 1430 AK",52.2666259,4.7510049,Afdeling Aalsmeer
1,"Gasthuisstraat 78  Winterswijk,  Gelderland 7101 DX",51.9734384,6.7153642,Afdeling Achterhoek Oost
2,"Gasthuisstraat 78  Winterswijk,  Gelderland 7101 DX",51.9734618,6.7153871,Afdeling Achterhoek Oost
3,"Gasthuisstraat 78  Winterswijk,  Gelderland 7101 DX",51.9734618,6.7153871,Afdeling Achterhoek Oost
4,"Duivenstraat 70  Papendrecht,  Zuid-Holland 3353 AG",51.8258030,4.6907499,Afdeling Alblasserwaard
5,"Duivenstraat 70  Papendrecht,  Zuid-Holland 3353 AG",51.8258030,4.6907499,Afdeling Alblasserwaard
6,"Duivenstraat 70  Papendrecht,  Zuid-Holland 3353 AG",51.8258030,4.6907499,Afdeling Alblasserwaard
7,"Hofkampstraat 102  Almelo,  Overijssel 7607 NJ",52.3530579,6.6739634,Afdeling Almelo
8,"Hofkampstraat 102  Almelo,  Overijssel 7607 NJ",52.3532884,6.6735415,Afdeling Almelo
9,"Hofkampstraat 102  Almelo,  Overijssel 7607 NJ",52.3532884,6.6735415,Afdeling Almelo
10,"Wagenmakerbaan 47  Almere,  Flevoland 1315 BC",52.3694673,5.2145011,Afdeling Almere
11,"Wagenmakerbaan 47  Almere,  Flevoland 1315 BC",52.3694673,5.2145011,Afdeling Almere
12,"Wagenmakerbaan 47  Almere,  Flevoland 1315 BC",52.3694673,5.2145011,Afdeling Almere
13,"Dillenburg 2  Alphen Aan Den Rijn,  Zuid-Holland 2404 EV",52.1334013,4.6529346,Afdeling Alphen aan de Rijn e.o.
14,"Dillenburg 2  Alphen Aan Den Rijn,  Zuid-Holland 2404 EV",52.1334013,4.6529346,Afdeling Alphen aan de Rijn e.o.
15,"Dillenburg 2  Alphen Aan Den Rijn,  Zuid-Holland 2404 EV",52.1334013,4.6529346,Afdeling Alphen aan de Rijn e.o.
16,"Columbusweg 30  Amersfoort,  Utrecht 3814 WE",52.1598809,5.4024168,Afdeling Amersfoort-Eemland
17,"Columbusweg 30  Amersfoort,  Utrecht 3814 WE",52.1598809,5.4024168,Afdeling Amersfoort-Eemland
18,"Columbusweg 30  Amersfoort,  Utrecht 3814 WE",52.1598809,5.4024168,Afdeling Amersfoort-Eemland
19,"Hueseplein 15  Amstelveen,  Noord-Holland 1185 HH",52.2968493,4.8554627,Afdeling Amstelveen
20,"Hueseplein 15  Amstelveen,  Noord-Holland 1185 HH",52.2968493,4.8554627,Afdeling Amstelveen
21,"Hueseplein 15  Amstelveen,  Noord-Holland 1185 HH",52.2968493,4.8554627,Afdeling Amstelveen
22,"Valkenburgerstraat 24  Amsterdam,  Noord-Holland 1011 LZ",52.3702505,4.9080238,Afdeling Amsterdam
23,"Valkenburgerstraat 24  Amsterdam,  Noord-Holland 1011 LZ",52.3702505,4.9080238,Afdeling Amsterdam
24,"Valkenburgerstraat 24  Amsterdam,  Noord-Holland 1011 LZ",52.3702505,4.9080238,Afdeling Amsterdam
25,"Schuttersweg 41  Apeldoorn,  Gelderland 7314 LD",52.2140989,5.9433102,Afdeling Apeldoorn
26,"Schuttersweg 41  Apeldoorn,  Gelderland 7314 LD",52.2138774,5.9433802,Afdeling Apeldoorn
27,"Schuttersweg 41  Apeldoorn,  Gelderland 7314 LD",52.2138774,5.9433802,Afdeling Apeldoorn
28,"Cattepoelseweg 263  Arnhem,  Gelderland 6815 CD",52.0036621,5.9098379,Afdeling Arnhem
29,"Cattepoelseweg 263  Arnhem,  Gelderland 6815 CD",52.0036621,5.9098379,Afdeling Arnhem
30,"Cattepoelseweg 263  Arnhem,  Gelderland 6815 CD",52.0036621,5.9098379,Afdeling Arnhem
31,    ,12.52111,-69.968338,Afdeling Aruba
32,"Delft 73  Assen,  Drenthe 9406 GD",52.9964424,6.5372503,Afdeling Assen-Vries
33,"Delft 73  Assen,  Drenthe 9406 GD",52.9964424,6.5372503,Afdeling Assen-Vries
34,"Delft 73  Assen,  Drenthe 9406 GD",52.9964424,6.5372503,Afdeling Assen-Vries
35,"Burgemeester Penstraat 6  Baarn,  Utrecht 3741 AH",52.2127923,5.2932989,Afdeling Baarn-Soest
36,"Burgemeester Penstraat 6  Baarn,  Utrecht 3741 AH",52.2127923,5.2932989,Afdeling Baarn-Soest
37,"Nijkerkerweg 119  Barneveld,  Gelderland 3771 LA",52.1505216,5.5666422,Afdeling Barneveld
38,"Nijkerkerweg 119  Barneveld,  Gelderland 3771 LA",52.1505216,5.5666422,Afdeling Barneveld
39,"Nijkerkerweg 119  Barneveld,  Gelderland 3771 LA",52.1505216,5.5666422,Afdeling Barneveld
40,"Keulseweg 39 A  Reuver,  Limburg 5953 HE",51.2863448,6.0848605,Afdeling Beesel Reuver Offenbeek
41,"Keulseweg 39 A  Reuver,  Limburg 5953 HE",51.2863448,6.0848605,Afdeling Beesel Reuver Offenbeek
42,"Postadres: Heidenendstraat 21  Tegelen,  Limburg 5932 XV",51.3344927,6.1585363,Afdeling Belfeld
43,"Postadres: Heidenendstraat 21  Tegelen,  Limburg 5932 XV",51.3344927,6.1585363,Afdeling Belfeld
44,"Eksterstraat 12  Benschop,  Utrecht 3405 WH",52.0055623,4.9770708,Afdeling Benschop
45,"Pieter Mondriaanstraat 11  Bergen Lb,  Limburg 5854GA",51.6036380,6.0601171,Afdeling Bergen (L
46,"Pieter Mondriaanstraat 11  Bergen Lb,  Limburg 5854GA",51.6036380,6.0601171,Afdeling Bergen (L
47,"Pieter Mondriaanstraat 11  Bergen Lb,  Limburg 5854GA",51.6036380,6.0601171,Afdeling Bergen (L
48,"Karmel 225  BERGEN OP ZOOM,  Noord-Brabant 4613 BS",51.5030394,4.2773428,Afdeling Bergen op Zoom e.o.
49,"Karmel 225  BERGEN OP ZOOM,  Noord-Brabant 4613 BS",51.5030394,4.2773428,Afdeling Bergen op Zoom e.o.
50,"Karmel 255  BERGEN OP ZOOM,  Noord-Brabant 4613 BS",51.5030162,4.2769333,Afdeling Bergen op Zoom e.o.
51,"Postbus 130  Bergen Nh,  Noord-Holland 1860 AC",52.644084,4.725232,Afdeling Bergen-Egmond-Schoorl
52,"Postbus 130  Bergen Nh,  Noord-Holland 1860 AC",52.6749368,4.7063946,Afdeling Bergen-Egmond-Schoorl
53,"Haarloseweg 2 -3  Borculo,  Gelderland 7271 BT",52.111051,6.5229572,Afdeling Berkelland
54,"Haarloseweg 2 -3  Borculo,  Gelderland 7271 BT",52.1117226,6.5222163,Afdeling Berkelland
55,"Haarloseweg 2 -3  Borculo,  Gelderland 7271 BT",52.1117226,6.5222163,Afdeling Berkelland
56,"Nazarethstraat 144  Best,  Noord-Brabant 5683 AB",51.5110576,5.3942077,Afdeling Best
57,"Van Limburg Stirumstraat 1a  Geldermalsen,  Gelderland 4191 GM",51.8775434,5.2905419,Afdeling Betuwe Gaerde
58,"Van Limburg Stirumstraat 1a  Geldermalsen,  Gelderland 4191 GM",51.8775434,5.2905419,Afdeling Betuwe Gaerde
59,"Schoolstraat 16  Beuningen Gld,  Gelderland 6641 EV",51.8618381,5.7723253,Afdeling Beuningen (Gld
60,"Schoolstraat 16  Beuningen Gld,  Gelderland 6641 EV",51.8618381,5.7723253,Afdeling Beuningen (Gld
61,"Jamarstraat 11  Simpelveld,  Limburg 6369 ED",50.8363404,5.9808095,Afdeling Bocholtz-Simpelveld-Vaals
62,"Jamarstraat 11  Simpelveld,  Limburg 6369 ED",50.8363404,5.9808095,Afdeling Bocholtz-Simpelveld-Vaals
63,"Koninginneweg 3 a  Bodegraven,  Zuid-Holland 2411 XK",52.0870989,4.7562827,Afdeling Bodegraven
64,"Koninginneweg 3 a  Bodegraven,  Zuid-Holland 2411 XK",52.0875589,4.7557816,Afdeling Bodegraven
65,"Hoveniersland 22  Zaltbommel,  Gelderland 5301 VA",51.8078488,5.239637,Afdeling Bommelerwaard
66,"Hoveniersland 22  Zaltbommel,  Gelderland 5301 VA",51.8078488,5.2396371,Afdeling Bommelerwaard
67,    ,12.2018902,-68.2623822,Afdeling Bonaire
68,"Eendenkuil 1  Odoorn,  Drenthe 7873 BM",52.850783,6.8450974,Afdeling Borger-Odoorn
69,"Doetinchemseweg 7  Zelhem,  Gelderland 7021 BP",52.0002138,6.2434778,Afdeling Bronckhorst
70,"Doetinchemseweg 7  Zelhem,  Gelderland 7021 BP",52.0052793,6.3484697,Afdeling Bronckhorst
71,"Handelstraat 45  Eerbeek,  Gelderland 6961 AD",52.1103778,6.0554156,Afdeling Brummen-Eerbeek-Hall-Loenen
72,"Handelstraat 45  Eerbeek,  Gelderland 6961 AD",52.1103778,6.0554156,Afdeling Brummen-Eerbeek-Hall-Loenen
73,"Handelstraat 45  Eerbeek,  Gelderland 6961 AD",52.1103778,6.0554156,Afdeling Brummen-Eerbeek-Hall-Loenen
74,"De Insel 18  Brunssum,  Limburg 6442 AJ",50.9493883,5.9820765,Afdeling Brunssum e.o.
75,"De Insel 18  Brunssum,  Limburg 6442 AJ",50.9493883,5.9820765,Afdeling Brunssum e.o.
76,"De Insel 18  Brunssum,  Limburg 6442 AJ",50.9493883,5.9820765,Afdeling Brunssum e.o.
77,"Willem Dreesstraat 3  Bunschoten Spakenburg,  Utrecht 3752 AX",52.2495621,5.3748594,Afdeling Bunschoten/Spakenburg
78,"Willem Dreesstraat 3  Bunschoten Spakenburg,  Utrecht 3752 AX",52.2495621,5.3748594,Afdeling Bunschoten/Spakenburg
79,"Atoomweg 2 B  Groningen,  Groningen 9743 AK",53.2136769,6.5391622,Afdeling Centraal Groningen
80,"Atoomweg 2 B  Groningen,  Groningen 9743 AK",53.2136769,6.5391622,Afdeling Centraal Groningen
81,"Atoomweg 2 B  Groningen,  Groningen 9743 AK",53.2136769,6.5391622,Afdeling Centraal Groningen
82,"Otto van Reesweg 10  Culemborg,  Gelderland 4105 AA",51.9530656,5.2198391,Afdeling Culemborg
83,"Otto van Reesweg 10  Culemborg,  Gelderland 4105 AA",51.9529663,5.2195697,Afdeling Culemborg
84,"Kloosterstraat 16  Lemelerveld,  Overijssel 8152 AP",52.4461864,6.3373823,Afdeling Dalfsen-Lemelerveld-Nieuwleusen
85,"Hoge Steenweg 19  Breda,  Noord-Brabant 4811 CG",51.5949759,4.7907028,Afdeling De Baronie
86,"Hoge Steenweg 19  Breda,  Noord-Brabant 4811 CG",51.5949759,4.7907028,Afdeling De Baronie
87,"Hoge Steenweg 19  Breda,  Noord-Brabant 4811 CG",51.5949759,4.7907028,Afdeling De Baronie
88,"Sint Laurensweg 13  De Bilt,  Utrecht 3732 BA",52.1120558,5.1862711,Afdeling De Bilt
89,"Sint Laurensweg 13  De Bilt,  Utrecht 3732 BA",52.1121153,5.1860253,Afdeling De Bilt
90,"Sint Laurensweg 13  De Bilt,  Utrecht 3732 BA",52.1121324,5.1859605,Afdeling De Bilt
91,"Burgemeester Leenstraat 25  Lochem,  Gelderland 7242 AA",52.1592298,6.4131823,Afdeling De Graafschap
92,"Burgemeester Leenstraat 25  Lochem,  Gelderland 7242 AA",52.1592298,6.4131823,Afdeling De Graafschap
93,"Burgemeester Leenstraat 25  Lochem,  Gelderland 7242 AA",52.1592298,6.4131823,Afdeling De Graafschap
94,"James Ensorstraat 3  Waalwijk,  Noord-Brabant 5143 HC",51.6792489,5.0877338,Afdeling De Langstraat
95,"James Ensorstraat 3  Waalwijk,  Noord-Brabant 5143 HC",51.6792489,5.0877338,Afdeling De Langstraat
96,"Wolvenweg 27  Ruinen,  Drenthe 7963 BG",52.7614088,6.3540781,Afdeling De Wolden
97,"Torendreef 22  Bladel,  Noord-Brabant 5531 ET",51.3702621,5.2248958,Afdeling De Zaligheden
98,"Vulcanusweg 263  Delft,  Zuid-Holland 2624 AV",51.9967564,4.3605177,Afdeling Delft Midden-Delfland
99,"Vulcanusweg 263  Delft,  Zuid-Holland 2624 AV",51.9967564,4.3605177,Afdeling Delft Midden-Delfland
100,"Vulcanusweg 263  Delft,  Zuid-Holland 2624 AV",51.9967564,4.3605177,Afdeling Delft Midden-Delfland
101,"Zilverstraat 2  Den Haag,  Zuid-Holland 2544 ER",52.0513328,4.2608382,Afdeling Den Haag-Rijswijk
102,"Zilverstraat 2  Den Haag,   ",52.0512932,4.2609512,Afdeling Den Haag-Rijswijk
103,"Bankastraat 27  Den Helder,  Noord-Holland 1782 TA",52.9583272,4.7496775,Afdeling Den Helder
104,"Bankastraat 27  Den Helder,  Noord-Holland 1782 TA",52.9583272,4.7496775,Afdeling Den Helder
105,"H G Gooszenstraat 10  Deventer,  Overijssel 7415 CL",52.2632887,6.1670674,Afdeling Deventer
106,"H G Gooszenstraat 10  Deventer,  Overijssel 7415 CL",52.2632887,6.1670674,Afdeling Deventer
107,"H G Gooszenstraat 10  Deventer,  Overijssel 7415 CL",52.2632887,6.1670674,Afdeling Deventer
108,"Nordhornsestraat 64  Denekamp,  Overijssel 7591 BH",52.3799015,7.0107963,Afdeling Dinkelland-Oldenzaal
109,"Nordhornsestraat 64  Denekamp,  Overijssel 7591 BH",52.3796845,7.0113573,Afdeling Dinkelland-Oldenzaal
110,"Klaverweide 20  Giesbeek,  Gelderland 6987 DB",51.9911275,6.0636252,Afdeling Doesburg e.o.
111,"Klaverweide 20  Giesbeek,  Gelderland 6987 DB",51.9911275,6.0636252,Afdeling Doesburg e.o.
112,"Klaverweide 20  Giesbeek,  Gelderland 6987 DB",51.9911275,6.0636252,Afdeling Doesburg e.o.
113,"Bachlaan 7  Doetinchem,  Gelderland 7002 MZ",51.96683,6.301705,Afdeling Doetinchem
114,"Bachlaan 7  Doetinchem,  Gelderland 7002 MZ",51.9668300,6.3017050,Afdeling Doetinchem
115,"Bachlaan 7  Doetinchem,  Gelderland 7002 MZ",51.9668300,6.3017050,Afdeling Doetinchem
116,"Dubbelsteynlaan West 43  Dordrecht,  Zuid-Holland 3319 EK",51.7937865,4.6954916,Afdeling Dordrecht
117,"Dubbelsteynlaan West 43  Dordrecht,  Zuid-Holland 3319 EK",51.7937865,4.6954916,Afdeling Dordrecht
118,"Dubbelsteynlaan West 43  Dordrecht,  Zuid-Holland 3319 EK",51.7937865,4.6954916,Afdeling Dordrecht
119,"De Gouwe 50  Dronten,  Flevoland 8253 PA",52.5396772,5.7012507,Afdeling Dronten
120,"De Gouwe 50  Dronten,  Flevoland 8253 PA",52.5396772,5.7012507,Afdeling Dronten
121,"De Gouwe 50  Dronten,  Flevoland 8253 PA",52.5396772,5.7012507,Afdeling Dronten
122,"Julianalaan 64  Maasbracht,  Limburg 6051 AV",51.1441423,5.8891521,Afdeling Echt e.o.
123,"Julianalaan 64  Maasbracht,  Limburg 6051 AV",51.1441423,5.8891521,Afdeling Echt e.o.
124,"Klinkenbergerweg 30 C  Ede Gld,  Gelderland 6711 MK",52.0402598,5.670951,Afdeling Ede e.o.
125,"Klinkenbergerweg 30 C  Ede Gld,  Gelderland 6711 MK",52.0402598,5.6709510,Afdeling Ede e.o.
126,"Kramsvogel 42  Eijsden,  Limburg 6245 RE",50.7782676,5.7228404,Afdeling Eijsden-Margraten
127,"Kramsvogel 42  Eijsden,  Limburg 6245 RE",50.7782676,5.7228404,Afdeling Eijsden-Margraten
128,"Kramsvogel 42  Eijsden,  Limburg 6245 RE",50.7782676,5.7228404,Afdeling Eijsden-Margraten
129,"Willem van Konijnenburglaan 6  Eindhoven,  Noord-Brabant 5613 DW",51.4387588,5.495183,Afdeling Eindhoven e.o.
130,"Willem van Konijnenburglaan 6  Eindhoven,  Noord-Brabant 5613 DW",51.4387588,5.4951830,Afdeling Eindhoven e.o.
131,"Willem van Konijnenburglaan 6  Eindhoven,  Noord-Brabant 5613 DW",51.4387588,5.4951830,Afdeling Eindhoven e.o.
132,"Van Sytzamalaan 3  Oldebroek,  Gelderland 8096 AR",52.446564,5.9002123,Afdeling Elburg en Oldebroek
133,"Van Sytzamalaan 3  Oldebroek,  Gelderland 8096 AR",52.4463641,5.9004948,Afdeling Elburg en Oldebroek
134,"Slenerbrink 272  Emmen,  Drenthe 7812 HL",52.7583561,6.88952,Afdeling Emmen
135,"Slenerbrink 272  Emmen,  Drenthe 7812 HL",52.7583561,6.8895201,Afdeling Emmen
136,"Slenerbrink 272  Emmen,  Drenthe 7812 HL",52.7583561,6.8895201,Afdeling Emmen
137,"Veenroede 21  Emmer-Compascuum,  Drenthe 7881 XM",52.8035293,6.9876196,Afdeling Emmer-Compascuum/Roswinkel
138,"Blekerstraat 81  Enschede,  Overijssel 7513 DT",52.215683,6.884497,Afdeling Enschede
139,"Blekerstraat 81  Enschede,  Overijssel 7513 DT",52.2156830,6.8844970,Afdeling Enschede
140,"Blekerstraat 81  Enschede,  Overijssel 7513 DT",52.2156830,6.8844970,Afdeling Enschede
141,"Lohuizerweg 18 -1  Epe,  Gelderland 8162 EX",52.3533195,5.9824523,Afdeling Epe/Heerde
142,"Lohuizerweg 18 -1  Epe,  Gelderland 8162 EX",52.3533195,5.9824523,Afdeling Epe/Heerde
143,"Lange Haeg 189  Ermelo,  Gelderland 3853 EG",52.3012191,5.6011315,Afdeling Ermelo-Putten
144,"Slobbegorsedijk 2  Heijningen,  Noord-Brabant 4794 RR",51.6495414,4.4133662,Afdeling Fijnaart en Heijningen
145,"Slobbegorsedijk 2  Heijningen,  Noord-Brabant 4794 RR",51.6495414,4.4133662,Afdeling Fijnaart en Heijningen
146,"Kinkenweg 13 A  Geleen,  Limburg 6166 AM",50.9689896,5.8374778,Afdeling Geleen e.o.
147,"Kinkenweg 13 A  Geleen,  Limburg 6166 AM",50.9689896,5.8374778,Afdeling Geleen e.o.
148,"Kinkenweg 13 A  Geleen,  Limburg 6166 AM",50.9689896,5.8374778,Afdeling Geleen e.o.
149,"Heiweg 5  Malden,  Gelderland 6581 EA",51.7912766,5.8518985,Afdeling Gemeente Heumen
150,"Rijksvluchthaven 24  Heijen,  Limburg 6591BC",51.6823028,5.9724448,Afdeling Gennep e.o.
151,"Rijksvluchthaven 24  Heijen,  Limburg 6591BC",51.6823028,5.9724448,Afdeling Gennep e.o.
152,"Helmkruid 5  Gieten,  Drenthe 9461 LL",52.998417,6.7726798,Afdeling Gieten/Gasselte
153,"Helmkruid 5  Gieten,  Drenthe 9461 LL",52.9984170,6.7726798,Afdeling Gieten/Gasselte
154,"Helmkruid 5  Gieten,  Drenthe 9461 LL",52.9984170,6.7726798,Afdeling Gieten/Gasselte
155,"Marnix Gijsenstraat 7  Sommelsdijk,  Zuid-Holland 3245 ME",51.7636856,4.1537635,Afdeling Goeree-Overflakkee
156,"Marnix Gijsenstraat 7  Sommelsdijk,  Zuid-Holland 3245 ME",51.7636856,4.1537635,Afdeling Goeree-Overflakkee
157,"Marnix Gijsenstraat 7  Sommelsdijk,  Zuid-Holland 3245 ME",51.7636856,4.1537635,Afdeling Goeree-Overflakkee
158,"  Bussum,   ",52.2737893,5.1663871,Afdeling Gooi- en Vechtstreek
159,"  Bussum,   ",52.2737893,5.1663871,Afdeling Gooi- en Vechtstreek
160,"  Bussum,   ",52.2737893,5.1663871,Afdeling Gooi- en Vechtstreek
161,"Punt 6  Gouda,  Zuid-Holland 2801 PZ",52.0072745,4.7142511,Afdeling Gouda en omstreken
162,"Punt 6  Gouda,  Zuid-Holland 2801 PZ",52.0072745,4.7142511,Afdeling Gouda en omstreken
163,"Adriaen Brouwerstraat 10  Haaksbergen,  Overijssel 7482 ZK",52.1610871,6.7273296,Afdeling Haaksbergen
164,"Adriaen Brouwerstraat 10  Haaksbergen,  Overijssel 7482 ZK",52.1612477,6.7276769,Afdeling Haaksbergen
165,"Adriaen Brouwerstraat 10  Haaksbergen,  Overijssel 7482 ZK",52.1612477,6.7276769,Afdeling Haaksbergen
166,"Vergierdeweg 52  Haarlem,  Noord-Holland 2025 TK",52.414591,4.6518287,Afdeling Haarlem e.o.
167,"Vergierdeweg 52  Haarlem,  Noord-Holland 2025 TK",52.4144633,4.6521705,Afdeling Haarlem e.o.
168,"Vergierdeweg 52  Haarlem,  Noord-Holland 2025 TK",52.4144633,4.6521705,Afdeling Haarlem e.o.
169,"Nieuweweg 33b  Hoofddorp,  Noord-Holland 2132 CK",52.3051935,4.6995687,Afdeling Haarlemmermeer
170,"Nieuweweg 33b  Hoofddorp,  Noord-Holland 2132 CK",52.3051935,4.6995687,Afdeling Haarlemmermeer
171,"Nieuweweg 33b  Hoofddorp,  Noord-Holland 2132 CK",52.3051935,4.6995687,Afdeling Haarlemmermeer
172,"Rijpersweg 36  Oud Gastel,  Noord-Brabant 4751 AS",51.5939298,4.4603105,Afdeling Halderberge
173,"Maltezerlaan 3  Harderwijk,  Gelderland 3842 AZ",52.3437448,5.6239057,Afdeling Harderwijk
174,"Maltezerlaan 3  Harderwijk,  Gelderland 3842 AZ",52.3438051,5.6246713,Afdeling Harderwijk
175,"Damstraat 26  Hardinxveld-Giessendam,  Zuid-Holland 3371 AD",51.8296819,4.8353419,Afdeling Hardinxveld-Giessendam e.o.
176,"Damstraat 26  Hardinxveld-Giessendam,  Zuid-Holland 3371 AD",51.8296819,4.8353419,Afdeling Hardinxveld-Giessendam e.o.
177,"Damstraat 26  Hardinxveld-Giessendam,  Zuid-Holland 3371 AD",51.8296819,4.8353419,Afdeling Hardinxveld-Giessendam e.o.
178,"Van Galenstraat 40  Hattem,  Gelderland 8051 VC",52.4726549,6.0644266,Afdeling Hattem/Wapenveld
179,"Van Galenstraat 40  Hattem,  Gelderland 8051 VC",52.4727341,6.0641534,Afdeling Hattem/Wapenveld
180,"Van Galenstraat 40  Hattem,  Gelderland 8051 VC",52.4727341,6.0641534,Afdeling Hattem/Wapenveld
181,"Nobelstraat 51  Heerlen,  Limburg 6411 EL",50.8838638,5.9793016,Afdeling Heerlen e.o.
182,"Nobelstraat 51  Heerlen,  Limburg 6411 EL",50.8838638,5.9793016,Afdeling Heerlen e.o.
183,"Nobelstraat 51  Heerlen,  Limburg 6411 EL",50.8838638,5.9793016,Afdeling Heerlen e.o.
184,"Slimpad 16 C  Heiloo,  Noord-Holland 1851 LB",52.601363,4.7101984,Afdeling Heiloo
185,"Slimpad 16 C  Heiloo,  Noord-Holland 1851 LB",52.6013630,4.7101984,Afdeling Heiloo
186,"Slimpad 16 C  Heiloo,  Noord-Holland 1851 LB",52.6013630,4.7101984,Afdeling Heiloo
187,"Rembrandtplein 19  Nijverdal,  Overijssel 7442 KH",52.3597058,6.4658531,Afdeling Hellendoorn - Nijverdal
188,"Rembrandtplein 19  Nijverdal,  Overijssel 7442 KH",52.3597058,6.4658531,Afdeling Hellendoorn - Nijverdal
189,"Rembrandtplein 19  Nijverdal,  Overijssel 7442 KH",52.3597058,6.4658531,Afdeling Hellendoorn - Nijverdal
190,"Nachtegaallaan 215  Helmond,  Noord-Brabant 5702 KM",51.4978012,5.6658597,Afdeling Helmond e.o.
191,"Nachtegaallaan 215  Helmond,  Noord-Brabant 5702 KM",51.4978012,5.6658597,Afdeling Helmond e.o.
192,"Marnixstraat 1  Hengelo,  Overijssel 7553 LC",52.2526080,6.8000568,Afdeling Hengelo-Borne
193,"Marnixstraat 1  Hengelo,  Overijssel 7553 LC",52.2526080,6.8000568,Afdeling Hengelo-Borne
194,"De Klapstaarten 5  Esbeek,  Noord-Brabant 5085 GA",51.4625136,5.1368906,Afdeling Hilvarenbeek
195,"Julianastraat 11  Oud-Beijerland,  Zuid-Holland 3262 SH",51.8238306,4.4135334,Afdeling Hoeksche Waard
196,"Julianastraat 11  Oud-Beijerland,  Zuid-Holland 3262 SH",51.8238284,4.4131558,Afdeling Hoeksche Waard
197,"Julianastraat 11  Oud-Beijerland,  Zuid-Holland 3262 SH",51.8238284,4.4131558,Afdeling Hoeksche Waard
198,"Kloosterlaan 25  Goor,  Overijssel 7471 BA",52.2363423,6.5911715,Afdeling Hof van Twente
199,"Saffier 16  Julianadorp,  Noord-Holland 1761 VD",52.8613106,4.8191593,Afdeling Hollands Kroon
200,"Saffier 16  Julianadorp,  Noord-Holland 1761 VD",52.8613668,4.8192120,Afdeling Hollands Kroon
201,"De Waring 38  Hoogeveen,  Drenthe 7908 LE",52.7136499,6.443421,Afdeling Hoogeveen
202,"De Waring 38  Hoogeveen,  Drenthe 7908 LE",52.7137702,6.4434996,Afdeling Hoogeveen
203,"De Waring 38  Hoogeveen,  Drenthe 7908 LE",52.7137702,6.4434996,Afdeling Hoogeveen
204,"Gebroeders van Doornelaan 63  Horst,  Limburg 5961 BB",51.4645906,6.0480882,Afdeling Horst aan de Maas
205,"Gebroeders van Doornelaan 63  Horst,  Limburg 5961 BB",51.4645906,6.0480882,Afdeling Horst aan de Maas
206,"Gebroeders van Doornelaan 63  Horst,  Limburg 5961 BB",51.4645906,6.0480882,Afdeling Horst aan de Maas
207,"Dijkhoeve 4  Houten,  Utrecht 3992 XV",52.034488,5.1652678,Afdeling Houten
208,"Dijkhoeve 4  Houten,  Utrecht 3992 XV",52.0344880,5.1652678,Afdeling Houten
209,"Dijkhoeve 4  Houten,  Utrecht 3992 XV",52.0344880,5.1652678,Afdeling Houten
210,"&#39;s Gravenlust 35  IJmuiden,  Noord-Holland 1981 AE",52.459761,4.650465,Afdeling IJmond
211,"  IJmuiden,  Noord-Holland 1981 AE",52.4604640,4.6496896,Afdeling IJmond
212,"  IJmuiden,  Noord-Holland 1981 AE",52.4604640,4.6496896,Afdeling IJmond
213,"Duitslandstraat 7  Ijsselstein Ut,  Utrecht 3402 GH",52.0233415,5.0541129,Afdeling IJsselstein
214,"Duitslandstraat 7  Ijsselstein Ut,  Utrecht 3402 GH",52.0233415,5.0541129,Afdeling IJsselstein
215,"Duitslandstraat 7  Ijsselstein Ut,  Utrecht 3402 GH",52.0233415,5.0541129,Afdeling IJsselstein
216,"Wilhelminalaan 20  Kampen,  Overijssel 8262 DE",52.5610437,5.9073457,Afdeling Kampen/IJsselmuiden
217,"Wilhelminalaan 20  Kampen,  Overijssel 8262 DE",52.5610437,5.9073457,Afdeling Kampen/IJsselmuiden
218,"Wilhelminalaan 20  Kampen,  Overijssel 8262 DE",52.5610437,5.9073457,Afdeling Kampen/IJsselmuiden
219,"Bruelisstraat 21  Kapelle,  Zeeland 4421 CL",51.4844545,3.963304,Afdeling Kapelle
220,"Bruelisstraat 21  Kapelle,  Zeeland 4421 CL",51.4844545,3.9633040,Afdeling Kapelle
221,"Bruelisstraat 21  Kapelle,  Zeeland 4421 CL",51.4844545,3.9633040,Afdeling Kapelle
222,"Prins Hendrikkade 12  Katwijk Zh,  Zuid-Holland 2225 TZ",52.2053233,4.4074919,Afdeling Katwijk
223,"Prins Hendrikkade 12  Katwijk Zh,  Zuid-Holland 2225 TZ",52.2052506,4.4077145,Afdeling Katwijk
224,"Hoofdstraat 24 b  Kerkrade,  Limburg 6461 CR",50.8643664,6.0660515,Afdeling Kerkrade
225,"Hoofdstraat 24 b  Kerkrade,  Limburg 6461 CR",50.8643664,6.0660515,Afdeling Kerkrade
226,"Hoofdstraat 24 b  Kerkrade,  Limburg 6461 CR",50.8643664,6.0660515,Afdeling Kerkrade
227,"Dordsedijk 7  Klazienaveen,  Drenthe 7891 NJ",52.7230465,6.9857339,Afdeling Klazienaveen
228,"D. van de Arestraat 17  Vollenhove,  Overijssel 8325 GJ",52.6763662,5.9604907,Afdeling Kop van Overijssel
229,"D. van de Arestraat 17  Vollenhove,  Overijssel 8325 GJ",52.6763662,5.9604907,Afdeling Kop van Overijssel
230,"D. van de Arestraat 17  Vollenhove,  Overijssel 8325 GJ",52.6763662,5.9604907,Afdeling Kop van Overijssel
231,"Buiten de Veste 10  Schoonhoven,  Zuid-Holland 2871 GE",51.9484035,4.8452331,Afdeling Krimpenerwaard
232,"Buiten de Veste 10  Schoonhoven,  Zuid-Holland 2871 GE",51.9484130,4.8452134,Afdeling Krimpenerwaard
233,"Buiten de Veste 10  Schoonhoven,  Zuid-Holland 2871 GE",51.9484130,4.8452134,Afdeling Krimpenerwaard
234,"Richter 44  Werkendam,  Noord-Brabant 4251 DB",51.8125119,4.903002,Afdeling Land van Heusden en Altena
235,"Lichtenbergerstraat 7 b  Landgraaf,  Limburg 6371 AS",50.9037859,6.0194126,Afdeling Landgraaf
236,"Lichtenbergerstraat 7 b  Landgraaf,  Limburg 6371 AS",50.9038888,6.0196146,Afdeling Landgraaf
237,"Apollolaan 1 B  Leiden,  Zuid-Holland 2324 BR",52.1397203,4.4763932,Afdeling Leiden e.o.
238,"Apollolaan 1 B  Leiden,  Zuid-Holland 2324 BR",52.1397203,4.4763932,Afdeling Leiden e.o.
239,"Apollolaan 1 B  Leiden,  Zuid-Holland 2324 BR",52.1397203,4.4763932,Afdeling Leiden e.o.
240,"Herenstraat 165  Voorburg,  Zuid-Holland 2271 CE",52.0664947,4.3619808,Afdeling Leidschendam-Voorburg
241,"Herenstraat 165  Voorburg,  Zuid-Holland 2271 CE",52.0664947,4.3619808,Afdeling Leidschendam-Voorburg
242,"Herenstraat 165  Voorburg,  Zuid-Holland 2271 CE",52.0664947,4.3619808,Afdeling Leidschendam-Voorburg
243,"Wigstraat 15  Lelystad,  Flevoland 8223 EE",52.5232747,5.4940873,Afdeling Lelystad
244,"Wigstraat 15  Lelystad,  Flevoland 8223 EE",52.5232747,5.4940874,Afdeling Lelystad
245,"Wigstraat 15  Lelystad,  Flevoland 8223 EE",52.5232747,5.4940874,Afdeling Lelystad
246,"Vincent van Goghstraat 4 6901 DK ZEVENAAR  Zevenaar,  Gelderland 6901 DK",51.9302388,6.0684221,Afdeling Liemers Oost
247,"Vincent van Goghstraat 4  Zevenaar,  Gelderland 6901 DK",51.9302388,6.0684221,Afdeling Liemers Oost
248,"p/a Langerakstraat 16  Doornenburg,  Gelderland 6686 CE",51.8912299,5.9979118,Afdeling Lingewaard-Overbetuwe
249,"p/a Langerakstraat 16  Doornenburg,  Gelderland 6686 CE",51.8912299,5.9979118,Afdeling Lingewaard-Overbetuwe
250,"p/a Langerakstraat 16  Doornenburg,  Gelderland 6686 CE",51.8912299,5.9979118,Afdeling Lingewaard-Overbetuwe
251,"Maria-Louiselaan 11  Lopik,  Utrecht 3411 XS",51.9710102,4.946884,Afdeling Lopik/Polsbroek
252,"Maria-Louiselaan 11  Lopik,  Utrecht 3411 XS",51.9710102,4.9468840,Afdeling Lopik/Polsbroek
253,"Pelikaanstraat 17  Losser,  Overijssel 7581 SZ",52.2522666,7.011852,Afdeling Losser
254,"Cortenstraat 7  Maastricht,  Limburg 6211 HT",50.846811,5.69212,Afdeling Maastricht-Meerssen-Mergelland
255,"Cortenstraat 7  Maastricht,  Limburg 6211 HT",50.8468110,5.6921200,Afdeling Maastricht-Meerssen-Mergelland
256,"Cortenstraat 7  Maastricht,  Limburg 6211 HT",50.8468110,5.6921200,Afdeling Maastricht-Meerssen-Mergelland
257,"Evertsenstraat 1  Veghel,  Noord-Brabant 5463 HM",51.6078748,5.5467325,Afdeling Meierijstad Boxtel Boekel
258,"Evertsenstraat 1  Veghel,  Noord-Brabant 5463 HM",51.6078748,5.5467325,Afdeling Meierijstad Boxtel Boekel
259,"Evertsenstraat 1  Veghel,  Noord-Brabant 5463 HM",51.6078748,5.5467325,Afdeling Meierijstad Boxtel Boekel
260,"De Plataan Vledderstraat 3F  Meppel,  Drenthe 7941 LC",52.6978140,6.1942430,Afdeling Meppel/Nijeveen
261,"De Plataan Vledderstraat 3F  Meppel,  Drenthe 7941 LC",52.6978140,6.1942430,Afdeling Meppel/Nijeveen
262,"De Plataan Vledderstraat 3F  Meppel,  Drenthe 7941 LC",52.6978140,6.1942430,Afdeling Meppel/Nijeveen
263,"Schuttersweg 41  Apeldoorn,  Gelderland 7314 LD",52.2139786,5.9433355,Afdeling Midden Betuwe
264,"Schuttersweg 41  Apeldoorn,  Gelderland 7314 LD",52.2138774,5.9433802,Afdeling Midden Betuwe
265,"Plataan 7  Megen,  Gelderland 5366 CJ",51.8187904,5.55885,Afdeling Midden Maas en Waal e.o.
266,"Plataan 7  Megen,  Gelderland 5366 CJ",51.8187904,5.5588500,Afdeling Midden Maas en Waal e.o.
267,"Weglangen 6  Westerbork,  Drenthe 9431 HK",52.8607638,6.6033652,Afdeling Midden-Drenthe
268,"Weglangen 6  Westerbork,  Drenthe 9431 HK",52.8607638,6.6033652,Afdeling Midden-Drenthe
269,"Weglangen 6  Westerbork,  Drenthe 9431 HK",52.8607638,6.6033652,Afdeling Midden-Drenthe
270,"Karnemelkstraat 2A  Breda,  Noord-Brabant 4811 KJ",51.5862425,4.7757534,Afdeling Moerdijk
271,"Trimpad 4  Vlaardingen,  Zuid-Holland 3135 GA",51.9225283,4.3634061,Afdeling Nieuwe Waterweg Noord
272,"Trimpad 4  Vlaardingen,  Zuid-Holland 3135 GA",51.9225033,4.3634001,Afdeling Nieuwe Waterweg Noord
273,"Trimpad 4  Vlaardingen,  Zuid-Holland 3135 GA",51.9225033,4.3634001,Afdeling Nieuwe Waterweg Noord
274,"Constructieweg 6  Nieuwegein,  Utrecht 3433 NN",52.0128076,5.1021432,Afdeling Nieuwegein
275,"Constructieweg 6  Nieuwegein,  Utrecht 3433 NN",52.0128076,5.1021433,Afdeling Nieuwegein
276,"Constructieweg 6  Nieuwegein,  Utrecht 3433 NN",52.0128076,5.1021433,Afdeling Nieuwegein
277,"Havenstraat 5 b  Nijkerk Gld,  Gelderland 3861 VS",52.2260497,5.480317,Afdeling Nijkerk
278,"Havenstraat 5 b  Nijkerk Gld,  Gelderland 3861 VS",52.2260497,5.4803169,Afdeling Nijkerk
279,"Gelderselaan 14  Nijmegen,  Gelderland 6523 LJ",51.8324481,5.8737845,Afdeling Nijmegen e.o.
280,"Gelderselaan 14  Nijmegen,  Gelderland 6523 LJ",51.8323549,5.8736339,Afdeling Nijmegen e.o.
281,"Atoomweg 2 B  Groningen,  Groningen 9743 AK",53.2136769,6.5391622,Afdeling Noord-Groningen
282,"Atoomweg 2 B  Groningen,  Groningen 9743 AK",53.2136769,6.5391622,Afdeling Noord-Groningen
283,"Atoomweg 2 B  Groningen,  Groningen 9743 AK",53.2136769,6.5391622,Afdeling Noord-Groningen
284,"Hertog Aalbrechtweg 10  Alkmaar,  Noord-Holland 1823 DL",52.6443921,4.7674848,Afdeling Noord-Kennemerland
285,"Hertog Aalbrechtweg 10  Alkmaar,  Noord-Holland 1823 DL",52.6443921,4.7674848,Afdeling Noord-Kennemerland
286,"Hertog Aalbrechtweg 10  Alkmaar,  Noord-Holland 1823 DL",52.6443921,4.7674848,Afdeling Noord-Kennemerland
287,"Golda Meirstraat 23  Goes,  Zeeland 4463 DC",51.5170185,3.8852968,Afdeling Noord-West Beveland
288,"Golda Meirstraat 23  Goes,  Zeeland 4463 DC",51.5170185,3.8852968,Afdeling Noord-West Beveland
289,"Golda Meirstraat 23  Goes,  Zeeland 4463 DC",51.5170185,3.8852968,Afdeling Noord-West Beveland
290,"Boslaan 10A  Zuidhoorn,  Groningen 9801 HG",53.2458562,6.4028816,Afdeling Noord-West Groningen
291,"Boslaan 10A  Zuidhoorn,  Groningen 9801 HG",53.2458562,6.4028816,Afdeling Noord-West Groningen
292,"Boslaan 10A  Zuidhoorn,  Groningen 9801 HG",53.2458562,6.4028816,Afdeling Noord-West Groningen
293,"Hoppad 17  Roden,  Drenthe 9301 PG",53.1458435,6.4244355,Afdeling Noordenveld
294,"Hoppad 17  Roden,  Drenthe 9301 PG",53.1458435,6.4244355,Afdeling Noordenveld
295,"Hoppad 17  Roden,  Drenthe 9301 PG",53.1458435,6.4244355,Afdeling Noordenveld
296,"Kromstraat 45  Oss,  Noord-Brabant 5345 AA",51.7617740,5.5142204,Afdeling Noordoost-Brabant
297,"Kromstraat 45  Oss,  Noord-Brabant 5345 AA",51.7618343,5.5141940,Afdeling Noordoost-Brabant
298,"Kromstraat 45  Oss,  Noord-Brabant 5345 AA",51.7618343,5.5141940,Afdeling Noordoost-Brabant
299,"Espelerweg 4  Emmeloord,  Flevoland 8303 HW",52.7234589,5.7442913,Afdeling Noordoostpolder
300,"Espelerweg 4  Emmeloord,  Flevoland 8303 HW",52.7245977,5.7481343,Afdeling Noordoostpolder
301,"Espelerweg 4  Emmeloord,  Flevoland 8303 HW",52.7245977,5.7481343,Afdeling Noordoostpolder
302,"Elburgerweg 11  Nunspeet,  Gelderland 8071 TA",52.3825358,5.7836793,Afdeling Nunspeet e.o.
303,"Elburgerweg 11  Nunspeet,  Gelderland 8071 TA",52.3825358,5.7836793,Afdeling Nunspeet e.o.
304,"Blokshekken 6  Oisterwijk,  Noord-Brabant 5061 HA",51.5809603,5.1902251,Afdeling Oisterwijk
305,"Blokshekken 6  Oisterwijk,  Noord-Brabant 5061 HA",51.5809603,5.1902251,Afdeling Oisterwijk
306,"Nering Bögelstraat 62  Ommen,   7731 EM",52.5231995,6.4214852,Afdeling Ommen
307,"Nering Bögelstraat 62  Ommen,   7731 EM",52.5231995,6.4214852,Afdeling Ommen
308,"Atoomweg 2 B  Groningen,  Groningen 9743 AK",53.2136769,6.5391622,Afdeling Oost-Groningen
309,"Atoomweg 2 B  Groningen,  Groningen 9743 AK",53.2136769,6.5391622,Afdeling Oost-Groningen
310,"Atoomweg 2 B  Groningen,  Groningen 9743 AK",53.2136769,6.5391622,Afdeling Oost-Groningen
311,"In de Korenmolen 30  Duivendrecht,  Noord-Holland 1115 GP",52.3310181,4.942307,Afdeling Ouder-Amstel
312,"Oranjestraat 10  Panningen,  Limburg 5981 CB",51.3238732,5.9724259,Afdeling Peel en Maas
313,"Oranjestraat 10  Panningen,  Limburg 5981 CB",51.3238732,5.9724259,Afdeling Peel en Maas
314,"Ackersdijkseweg 16  Delfgauw,  Zuid-Holland 2645 EB",51.9794015,4.4047622,Afdeling Pijnacker-Nootdorp
315,"Ackersdijkseweg 16  Delfgauw,  Zuid-Holland 2645 EB",51.9794145,4.4048607,Afdeling Pijnacker-Nootdorp
316,"Ackersdijkseweg 16  Delfgauw,  Zuid-Holland 2645 EB",51.9794145,4.4048607,Afdeling Pijnacker-Nootdorp
317,"Graaf Ottolaan 13  Oosterbeek,  Gelderland 6861 BS",51.9955806,5.835291,Afdeling Renkum-Wageningen
318,"Graaf Ottolaan 13  Oosterbeek,  Gelderland 6861 BS",51.9955806,5.8352910,Afdeling Renkum-Wageningen
319,"Graaf Ottolaan 13  Oosterbeek,  Gelderland 6861 BS",51.9955806,5.8352910,Afdeling Renkum-Wageningen
320,"Kerkstraat 20  Renswoude,  Utrecht 3927 BR",52.0708369,5.5404773,Afdeling Renswoude
321,"Kerkstraat 1  Rhenen,  Utrecht 3911 LD",51.9570453,5.5653126,Afdeling Rhenen
322,"Kerkstraat 1  Rhenen,  Utrecht 3911 LD",51.9570295,5.5652263,Afdeling Rhenen
323,"Kerkstraat 1  Rhenen,  Utrecht 3911 LD",51.9570295,5.5652263,Afdeling Rhenen
324,"Willem de Zwijgerstraat 30  Rijssen,  Overijssel 7462 HJ",52.3024324,6.5073784,Afdeling Rijssen
325,"Willem de Zwijgerstraat 30  Rijssen,  Overijssel 7462 HJ",52.3024324,6.5073784,Afdeling Rijssen
326,"Willem de Zwijgerstraat 30  Rijssen,  Overijssel 7462 HJ",52.3024324,6.5073784,Afdeling Rijssen
327,"Molengriendweg 3  Roermond,  Limburg 6041 BN",51.2071574,5.9992408,Afdeling Roermond e.o.
328,"Molengriendweg 3  Roermond,  Limburg 6041 BN",51.2072526,5.9990571,Afdeling Roermond e.o.
329,"Plein 15  Rolde,  Drenthe 9451 BW",52.9874097,6.6444316,Afdeling Rolde
330,"Plein 15  Rolde,  Drenthe 9451 BW",52.9874097,6.6444316,Afdeling Rolde
331,"Plein 15  Rolde,  Drenthe 9451 BW",52.9874097,6.6444316,Afdeling Rolde
332,"Gezellelaan 18 E  Roosendaal,  Noord-Brabant 4707 CD",51.5198152,4.4626575,Afdeling Roosendaal
333,"Gezellelaan 18 E  Roosendaal,  Noord-Brabant 4707 CD",51.5198152,4.4626575,Afdeling Roosendaal
334,"Leeuwenstraat 9 11  Rotterdam,  Zuid-Holland 3011 AL",51.9213939,4.4823332,Afdeling Rotterdam
335,"Leeuwenstraat 9 11  Rotterdam,  Zuid-Holland 3011 AL",51.9213939,4.4823332,Afdeling Rotterdam
336,"Leeuwenstraat 9 11  Rotterdam,  Zuid-Holland 3011 AL",51.9213939,4.4823332,Afdeling Rotterdam
337,"Oude Dieze 12  S-Hertogenbosch,  Noord-Brabant 5211 KV",51.6856811,5.3081307,Afdeling s-Hertogenbosch e.o.
338,"Oude Dieze 12  S-Hertogenbosch,  Noord-Brabant 5211 KV",51.6856930,5.3082950,Afdeling s-Hertogenbosch e.o.
339,"Oude Dieze 12  S-Hertogenbosch,  Noord-Brabant 5211 KV",51.6856930,5.3082950,Afdeling s-Hertogenbosch e.o.
340,    ,17.6354642,-63.2326763,Afdeling Saba
341,"Westdorplaan 132 a  Raalte,  Overijssel 8101 PP",52.3779058,6.270343,Afdeling Salland Midden
342,"Westdorplaan 132 a  Raalte,  Overijssel 8101 PP",52.3779125,6.2703254,Afdeling Salland Midden
343,"Westdorplaan 132 a  Raalte,  Overijssel 8101 PP",52.3779125,6.2703254,Afdeling Salland Midden
344,"Zeearendstraat 13  Petten,  Noord-Holland 1755 PK",52.7672322,4.6571724,Afdeling Schagen
345,"Zeearendstraat 13  Petten,  Noord-Holland 1755 PK",52.7672322,4.6571724,Afdeling Schagen
346,"Zeearendstraat 13  Petten,  Noord-Holland 1755 PK",52.7672322,4.6571724,Afdeling Schagen
347,"Schuitkant 5  Burgh-Haamstede,  Zeeland 4328 BE",51.6973099,3.7452641,Afdeling Schouwen-Duiveland
348,"Schuitkant 5  Burgh-Haamstede,  Zeeland 4328 BE",51.6973099,3.7452641,Afdeling Schouwen-Duiveland
349,    ,17.4890306,-62.973555,Afdeling Sint Eustatius
350,    ,18.04248,-63.05483,Afdeling Sint Maarten
351,"Hemelsley 20  Sittard,  Limburg 6136 HM",51.0046689,5.8789286,Afdeling Sittard e.o.
352,"Hemelsley 20  Sittard,  Limburg 6136 HM",51.0047685,5.8790188,Afdeling Sittard e.o.
353,"Hemelsley 20  Sittard,  Limburg 6136 HM",51.0047685,5.8790188,Afdeling Sittard e.o.
354,"Beusakker 27  Someren,  Noord-Brabant 5712 MG",51.3855954,5.7010448,Afdeling Someren
355,"Berkenlaan 1  Staphorst,  Overijssel 7951 CA",52.6486927,6.2063253,Afdeling Staphorst
356,"Berkenlaan 1  Staphorst,  Overijssel 7951 CA",52.6486927,6.2063254,Afdeling Staphorst
357,"Kerkvaart 2  Mijdrecht,  Utrecht 3641 EP",52.2088431,4.8659101,Afdeling Stichts Weidegebied
358,"Kerkvaart 2  Mijdrecht,  Utrecht 3641 EP",52.2089354,4.8659535,Afdeling Stichts Weidegebied
359,"Kerkvaart 2  Mijdrecht,  Utrecht 3641 EP",52.2089354,4.8659535,Afdeling Stichts Weidegebied
360,"Selfhelpweg 2    Sneek,  Friesland 8607 AB",53.0280229,5.6616366,Afdeling Sûdwest Fryslân
361,"Selfhelpweg 2  Sneek,  Friesland 8607 AB",53.0280306,5.6616850,Afdeling Sûdwest Fryslân
362,"Ankerstraat 24  Oosterend Nh,  Noord-Holland 1794 BJ",53.0847202,4.8772802,Afdeling Texel
363,"Ankerstraat 24  Oosterend Nh,  Noord-Holland 1794 BJ",53.0847202,4.8772802,Afdeling Texel
364,"Noordpoort 10  Sint Maartensdijk,  Zeeland 4695 BX",51.5508050,4.0783395,Afdeling Tholen-Reimerswaal
365,"Noordpoort 10  Sint Maartensdijk,  Zeeland 4695 BX",51.5508050,4.0783395,Afdeling Tholen-Reimerswaal
366,"Noordpoort 10  Sint Maartensdijk,  Zeeland 4695 BX",51.5508050,4.0783395,Afdeling Tholen-Reimerswaal
367,"Centaurusweg 57  Tilburg,  Noord-Brabant 5015 TC",51.5777965,5.1066236,Afdeling Tilburg e.o.
368,"Centaurusweg 57  Tilburg,  Noord-Brabant 5015 TC",51.5777965,5.1066236,Afdeling Tilburg e.o.
369,"Centaurusweg 57  Tilburg,  Noord-Brabant 5015 TC",51.5777965,5.1066236,Afdeling Tilburg e.o.
370,"De Wulp 69  Vriezenveen,  Overijssel 7671 ZN",52.4052122,6.6171574,Afdeling Twenterand
371,"De Wulp 69  Vriezenveen,  Overijssel 7671 ZN",52.4052122,6.6171574,Afdeling Twenterand
372,"De Wulp 69  Vriezenveen,  Overijssel 7671 ZN",52.4052122,6.6171574,Afdeling Twenterand
373,"Geesterweg 25  Uitgeest,  Noord-Holland 1911 HK",52.5288317,4.7082015,Afdeling Uitgeest
374,"Achterberglaan 63  Uithoorn,  Noord-Holland 1422 CX",52.2452494,4.832336,Afdeling Uithoorn
375,"Wijk 8 -2  Urk,  Flevoland 8321 TG",52.6637783,5.5983925,Afdeling Urk
376,"Wijk 8 -2  Urk,  Flevoland 8321 TG",52.6634651,5.5987392,Afdeling Urk
377,"Koningsweg 2  Utrecht,  Utrecht 3582 GE",52.0774404,5.1332255,Afdeling Utrecht
378,"Koningsweg 2  Utrecht,  Utrecht 3582 GE",52.0777407,5.1333434,Afdeling Utrecht
379,"Koningsweg 2  Utrecht,  Utrecht 3582 GE",52.0777407,5.1333434,Afdeling Utrecht
380,"Dennenhorst 22 a  Driebergen-Rijsenburg,  Utrecht 3972 GM",52.0475997,5.2899423,Afdeling Utrechtse Heuvelrug
381,"Dennenhorst 22 a  Driebergen-Rijsenburg,  Utrecht 3972 GM",52.0475997,5.2899423,Afdeling Utrechtse Heuvelrug
382,"Dennenhorst 22 a  Driebergen-Rijsenburg,  Utrecht 3972 GM",52.0475997,5.2899423,Afdeling Utrechtse Heuvelrug
383,"Bosstraat 5 B  Valkenburg Lb,  Limburg 6301 HM",50.8717929,5.8233347,Afdeling Valkenburg aan de Geul/Nuth
384,"Bosstraat 5 B  Valkenburg Lb,  Limburg 6301 HM",50.8717929,5.8233347,Afdeling Valkenburg aan de Geul/Nuth
385,"Bosstraat 5 B  Valkenburg Lb,  Limburg 6301 HM",50.8717929,5.8233347,Afdeling Valkenburg aan de Geul/Nuth
386,"Gelukken 15 A  Valkenswaard,  Noord-Brabant 5552 LD",51.359421,5.4514208,Afdeling Valkenswaard/A2
387,"Gelukken 15 A  Valkenswaard,  Noord-Brabant 5552 LD",51.3594210,5.4514208,Afdeling Valkenswaard/A2
388,"Gelukken 15 A  Valkenswaard,  Noord-Brabant 5552 LD",51.3594210,5.4514208,Afdeling Valkenswaard/A2
389,"Coevorderweg 31  Slagharen,  Overijssel 7776 AC",52.6231899,6.5561345,Afdeling Vechtdal
390,"Coevorderweg 31  Slagharen,  Overijssel 7776 AC",52.6231899,6.5561345,Afdeling Vechtdal
391,"Coevorderweg 31  Slagharen,  Overijssel 7776 AC",52.6231899,6.5561345,Afdeling Vechtdal
392,"De Sterke Arm 10  Veenendaal,  Utrecht 3901 ER",52.0221935,5.556435,Afdeling Veenendaal
393,"De Sterke Arm 10  Veenendaal,  Utrecht 3901 ER",52.0219804,5.5562900,Afdeling Veenendaal
394,"De Sterke Arm 10  Veenendaal,  Utrecht 3901 ER",52.0219804,5.5562900,Afdeling Veenendaal
395,"Hogendorpstraat 10  Dieren,  Gelderland 6951 ER",52.0525252,6.0990191,Afdeling Veluwezoom
396,"Hogendorpstraat 10  Dieren,  Gelderland 6951 ER",52.0525252,6.0990191,Afdeling Veluwezoom
397,"Hogendorpstraat 10  Dieren,  Gelderland 6951 ER",52.0525252,6.0990191,Afdeling Veluwezoom
398,"Nijmeegseweg 40  Venlo,  Limburg 5916 PT",51.3894144,6.176217,Afdeling Venlo
399,"Nijmeegseweg 40  Venlo,  Limburg 5916 PT",51.3894144,6.1762170,Afdeling Venlo
400,"Bergweg 4  Venray,  Limburg 5801 EG Venray",51.5263361,5.9675672,Afdeling Venray
401,"Bergweg 4  Venray,  Limburg 5801 EG",51.5263244,5.9674363,Afdeling Venray
402,"Bergweg 4  Venray,  Limburg 5801 EG",51.5263244,5.9674363,Afdeling Venray
403,"Magnoliastraat 10  Vianen Ut,  Utrecht 4131 BB",51.9955341,5.1066357,Afdeling Vijfheerenlanden
404,"Magnoliastraat 10  Vianen Ut,  Utrecht 4131 BB",51.9955514,5.1066280,Afdeling Vijfheerenlanden
405,"Plantageweg 4  Brielle,  Zuid-Holland 3232 LE",51.8968470,4.1659780,Afdeling Voorne-Putten
406,"Plantageweg 4  Brielle,  Zuid-Holland 3232 LE",51.8968470,4.1659780,Afdeling Voorne-Putten
407,"Plantageweg 4  Brielle,  Zuid-Holland 3232 LE",51.8968470,4.1659780,Afdeling Voorne-Putten
408,"Leidekkersdreef 12  Apeldoorn,  Gelderland 7328 AT",52.168709,6.068965,Afdeling Voorst
409,"Leidekkersdreef 12  Apeldoorn,  Gelderland 7328 AT",52.1961029,5.9876788,Afdeling Voorst
410,"Leidekkersdreef 12  Apeldoorn,  Gelderland 7328 AT",52.1961029,5.9876788,Afdeling Voorst
411,"Klein Vlaanderen 59  Middelburg,  Zeeland 4331 RG",51.5014924,3.6082036,Afdeling Walcheren
412,"Klein Vlaanderen 59  Middelburg,  Zeeland 4331 RG",51.5014924,3.6082036,Afdeling Walcheren
413,"Klein Vlaanderen 59  Middelburg,  Zeeland 4331 RG",51.5014924,3.6082036,Afdeling Walcheren
414,"Van Heeckerenstraat 2 A  Wassenaar,  Zuid-Holland 2242 GX",52.140218,4.3921858,Afdeling Wassenaar
415,"Van Heeckerenstraat 2 A  Wassenaar,  Zuid-Holland 2242 GX",52.1402180,4.3921858,Afdeling Wassenaar
416,"Van Heeckerenstraat 2 A  Wassenaar,  Zuid-Holland 2242 GX",52.1402180,4.3921858,Afdeling Wassenaar
417,"Boerhaavestraat 15 A  Weert,  Limburg 6001 AV",51.2555536,5.711226,Afdeling Weert e.o.
418,"Boerhaavestraat 15 A  Weert,  Limburg 6001 AV",51.2557867,5.7114425,Afdeling Weert e.o.
419,"Vredehofstraat 9 C  Hoorn,  Noord-Holland 1624 XG",52.6509202,5.0593765,Afdeling West-Friesland
420,"Vredehofstraat 9 C  Hoorn,  Noord-Holland 1624 XG",52.6509202,5.0593765,Afdeling West-Friesland
421,"Vredehofstraat 9 C  Hoorn Nh,  Noord-Holland 1624 XG",52.6509202,5.0593765,Afdeling West-Friesland (District Fryslan)
422,"Dorpsstraat 4  Havelte,  Drenthe 7971 CR",52.7664218,6.2452261,Afdeling Westerveld
423,"Eltensestraat 17  Duiven,  Gelderland 6922 JA",51.9445220,6.0083087,Afdeling Westervoort-Duiven-Groessen en Loo
424,"Eltensestraat 17  Duiven,  Gelderland 6922 JA",51.9445220,6.0083087,Afdeling Westervoort-Duiven-Groessen en Loo
425,"Eltensestraat 17  Duiven,  Gelderland 6922 JA",51.9445220,6.0083087,Afdeling Westervoort-Duiven-Groessen en Loo
426,"Postbus 72  Naaldwijk,  Zuid-Holland 2670 AB",51.9937334,4.2085835,Afdeling Westland
427,"Postbus 72  Naaldwijk,  Zuid-Holland 2670 AB",51.9923734,4.2080344,Afdeling Westland
428,"Postbus 72  Naaldwijk,  Zuid-Holland 2670 AB",51.9923734,4.2080344,Afdeling Westland
429,"Veenhof 1955  Wijchen,  Gelderland 6604 DG",51.8194371,5.7339262,Afdeling Wijchen
430,"Veenhof 1955  Wijchen,  Gelderland 6604 DG",51.8194252,5.7339416,Afdeling Wijchen
431,"Frankenplantsoen 11  Wijk Bij Duurstede,  Utrecht 3962 CG",51.9762373,5.3391738,Afdeling Wijk bij Duurstede/Cothen
432,"Nicolaas Beetslaan 14  Zandvoort,  Noord-Holland 2041 NN",52.3766172,4.5371495,Afdeling Zandvoort
433,"Nicolaas Beetslaan 14  Zandvoort,  Noord-Holland 2041 NN",52.3766172,4.5371495,Afdeling Zandvoort
434,"Nicolaas Beetslaan 14  Zandvoort,  Noord-Holland 2041 NN",52.3766172,4.5371495,Afdeling Zandvoort
435,"Mr. F.J. Haarmanweg 13  Terneuzen,  Zeeland 4538 AM",51.3265775,3.8298814,Afdeling Zeeuws Vlaanderen
436,"Mr. F.J. Haarmanweg 13  Terneuzen,  Zeeland 4538 AM",51.3265775,3.8298814,Afdeling Zeeuws Vlaanderen
437,"Postbus 164  Zeewolde,  Flevoland 3890 AD",52.330691,5.5439657,Afdeling Zeewolde
438,"Postbus 164  Zeewolde,  Flevoland 3890 AD",52.3311280,5.5404950,Afdeling Zeewolde
439,"Postbus 164  Zeewolde,  Flevoland 3890 AD",52.3311280,5.5404950,Afdeling Zeewolde
440,"Kwartellaan 13  Zeist,  Utrecht 3704 ET",52.0922815,5.2135435,Afdeling Zeist
441,"Kwartellaan 13  Zeist,  Utrecht 3704 ET",52.0922815,5.2135435,Afdeling Zeist
442,"Clauslaan 2 a  Zoetermeer,  Zuid-Holland 2713 VN",52.054808,4.4874597,Afdeling Zoetermeer
443,"Clauslaan 2 a  Zoetermeer,  Zuid-Holland 2713 VN",52.0549052,4.4873572,Afdeling Zoetermeer
444,"Clauslaan 2 a  Zoetermeer,  Zuid-Holland 2713 VN",52.0549052,4.4873572,Afdeling Zoetermeer
445,"Hofakkers 26  Oosterhesselen,  Drenthe 7861 AS",52.7557978,6.7209337,Afdeling Zuidoost Drenthe
446,"Hofakkers 26  Oosterhesselen,  Drenthe 7861 AS",52.7557978,6.7209337,Afdeling Zuidoost Drenthe
447,"Hofakkers 26  Oosterhesselen,  Drenthe 7861 AS",52.7557978,6.7209337,Afdeling Zuidoost Drenthe
448,"Brummelkant 2  Stadskanaal,  Groningen 9502 BB",52.9965024,6.9604348,Afdeling Zuidoost-Groningen
449,"Brummelkant 2  Stadskanaal,  Groningen 9502 BB",52.9965024,6.9604348,Afdeling Zuidoost-Groningen
450,"Brummelkant 2  Stadskanaal,  Groningen 9502 BB",52.9965024,6.9604348,Afdeling Zuidoost-Groningen
451,"Van Haersoltelaan 1  Hasselt,  Overijssel 8061 EG",52.5902404,6.1051056,Afdeling Zwartewaterland
452,"Van Haersoltelaan 1  Hasselt,  Overijssel 8061 EG",52.5901460,6.1056287,Afdeling Zwartewaterland
453,"Van Haersoltelaan 1  Hasselt,  Overijssel 8061 EG",52.5901440,6.1056403,Afdeling Zwartewaterland
454,"Kapitein Rietbergflat 26  Zwijndrecht,  Zuid-Holland 3333 CA",51.8094292,4.6331444,Afdeling Zwijndrechtsewaard
455,"Kapitein Rietbergflat 26  Zwijndrecht,  Zuid-Holland ",51.8094292,4.6331444,Afdeling Zwijndrechtsewaard
456,"Brahmsstraat 5  Zwolle,  Overijssel 8031 DB",52.5264911,6.0927263,Afdeling Zwolle
457,"Brahmsstraat 5  Zwolle,  Overijssel 8031 DB",52.5264911,6.0927263,Afdeling Zwolle
458,"Brahmsstraat 5  Zwolle,  Overijssel 8031 DB",52.5264911,6.0927263,Afdeling Zwolle
459,"Bellweg 2  Beilen,  Drenthe 9411 PV",52.8523313,6.5177339,District Drenthe
460,"Bellweg 2  Beilen,  Drenthe 9411 PV",52.8523313,6.5177339,District Drenthe
461,"Bellweg 2  Beilen,  Drenthe 9411 PV",52.8523313,6.5177339,District Drenthe
462,"Oranjewal 28   Dokkum,  Friesland 9101 JV ",53.3280322,5.9984980,District Fryslân - Werkgroep Dokkum
463,"Oranjewal 28  Dokkum,  Friesland 9101 JV",53.3279650,5.9984937,District Fryslân - Werkgroep Dokkum
464,"Omloop 42  Drachten,  Friesland 9201 CC",53.1096115,6.0841238,District Fryslân - Werkgroep Drachten
465,"Omloop 42  Drachten,  Friesland 9201 CC",53.1096115,6.0841238,District Fryslan - Werkgroep Drachten
466,"Omloop 42  Drachten,  Friesland 9201 CC",53.1096115,6.0841238,District Fryslân - Werkgroep Drachten
467,"Edisonstraat 32C  Franeker,  Friesland 8801 PN",53.1828233,5.5111517,District Fryslân - Werkgroep Harlingen &amp; Franeker
468,"Edisonstraat 32C  Franeker,  Friesland 8801 PN",53.1828233,5.5111517,District Fryslan - Werkgroep Harlingen &amp; Franeker
469,"Edisonstraat 32C  Franeker,  Friesland 8801 PN",53.1828233,5.5111517,District Fryslân - Werkgroep Harlingen &amp; Franeker
470,"Businesspark Friesland-West 42  Nijehaske,  Friesland 8466 SL ",52.9647351,5.8908150,District Fryslân - Werkgroep Heerenveen
471,"Businesspark Friesland-West 42  Nijehaske,  Friesland 8466 SL",52.9635356,5.8907778,District Fryslan - Werkgroep Heerenveen
472,"Businesspark Friesland-West 42  Nijehaske,  Friesland 8466 SL",52.9635356,5.8907778,District Fryslân - Werkgroep Heerenveen
473,"Vegelinsweg 6 B  Joure,  Friesland 8501 BA",52.9720687,5.7936809,District Fryslân - Werkgroep Joure
474,"Vegelinsweg 6 B  Joure,  Friesland 8501 BA",52.9718256,5.7937977,District Fryslan - Werkgroep Joure
475,"Vegelinsweg 6 B  Joure,  Friesland 8501 BA",52.9718256,5.7937977,District Fryslân - Werkgroep Joure
476,"James Wattstraat 4  Leeuwarden,  Friesland 8912 AR",53.1918167,5.7701782,District Fryslân - Werkgroep Leeuwarden / Helpdesk Fryslân
477,"James Wattstraat 4  Leeuwarden,  Friesland 8912 AR",53.1921913,5.7702814,District Fryslan - Werkgroep Leeuwarden / Helpdesk Fryslan
478,"James Wattstraat 4  Leeuwarden,  Friesland 8912 AR",53.1921913,5.7702814,District Fryslân - Werkgroep Leeuwarden / Helpdesk Fryslân
479,"Oppers 58  Wolvega,  Friesland 8471 ZM",52.8761067,5.9845741,District Fryslân - Werkgroep Wolvega
480,"Oppers 58  Wolvega,  Friesland 8471 ZM",52.8761067,5.9845741,District Fryslan - Werkgroep Wolvega
481,"Oppers 58  Wolvega,  Friesland 8471 ZM",52.8761067,5.9845741,District Fryslân - Werkgroep Wolvega
482,"Karmel 225  Bergen Op Zoom,  Noord-Brabant 4613 BS",51.5031358,4.2773919,District Midden- en West-Brabant
483,"Waterlandlaan 101  Purmerend,  Noord-Holland 1441 RT",52.5031993,4.9610166,District Zaanstreek-Waterland
484,"Waterlandlaan 101  Purmerend,  Noord-Holland 1441 RT",52.5026102,4.9617963,District Zaanstreek-Waterland
485,"Waterlandlaan 101  Purmerend,  Noord-Holland 1441 RT",52.5026102,4.9617963,District Zaanstreek-Waterland
486,    ,52.3787127,4.8989479,Studentendesk Amsterdam
487,"  Delft,   ",52.0115769,4.3570677,Studentendesk Delft
488,    ,52.0818833,4.3234469,Studentendesk Den Haag
489,"  Groningen,   ",53.2193835,6.5665017,Studentendesk Groningen
490,    ,52.1660566,4.4822578,Studentendesk Leiden
491,    ,50.8508762,5.7046281,Studentendesk Maastricht
492,    ,51.8430840,5.8537255,Studentendesk Nijmegen
493,    ,51.9234914,4.4695558,Studentendesk Rotterdam
494,    ,51.5603196,5.0803991,Studentendesk Tilburg
495,    ,52.0902797,5.1111779,Studentendesk Utrecht
496,    ,51.969149,5.665373,Studentendesk Wageningen
497,    ,51.495533,3.619436,Studentendesk Zeeland
